start=new Date('2022-04-16T00:00:00.000Z').valueOf();
sats=[{"BSTAR":"-0.02050000000000","MEAN_ANOMALY":"336.3920","FILE":"3403567","TLE_LINE2":"2 50812  53.2173  72.7347 0001597  39.5803 336.3920 15.37895639  3655","RA_OF_ASC_NODE":"72.7347","PERIAPSIS":"451.244","EPHEMERIS_TYPE":"0","LAUNCH_DATE":"2022-01-06","REV_AT_EPOCH":"365","COUNTRY_CODE":"US","MEAN_ELEMENT_THEORY":"SGP4","MEAN_MOTION":"15.37895639","NORAD_CAT_ID":"50812","OBJECT_TYPE":"PAYLOAD","GP_ID":"201344184","ELEMENT_SET_NO":"999","CENTER_NAME":"EARTH","OBJECT_ID":"2022-001K","TLE_LINE1":"1 50812U 22001K   22105.91667824 -.00716286  00000-0 -20500-1 0  9994","ECCENTRICITY":"0.00015970","ARG_OF_PERICENTER":"39.5803","EPOCH":"2022-04-15T22:00:00.999936","INCLINATION":"53.2173","APOAPSIS":"453.426","CLASSIFICATION_TYPE":"U","MEAN_MOTION_DDOT":"0.0000000000000","MEAN_MOTION_DOT":"-0.00716286","RCS_SIZE":"LARGE","DECAY_DATE":null,"REF_FRAME":"TEME","TIME_SYSTEM":"UTC","SEMIMAJOR_AXIS":"6830.470","SITE":"AFETR","OBJECT_NAME":"STARLINK-3338","PERIOD":"93.634"},{"RA_OF_ASC_NODE":"72.7379","FILE":"3403295","TLE_LINE2":"2 50813  53.2176  72.7379 0001834  35.4352  77.3209 15.39088776 16825","BSTAR":"-0.01974600000000","MEAN_ANOMALY":"77.3209","TLE_LINE1":"1 50813U 22001L   22105.91667824 -.00717462  00000-0 -19746-1 0  9992","GP_ID":"201314695","OBJECT_TYPE":"PAYLOAD","NORAD_CAT_ID":"50813","MEAN_MOTION":"15.39088776","OBJECT_ID":"2022-001L","ELEMENT_SET_NO":"999","CENTER_NAME":"EARTH","MEAN_ELEMENT_THEORY":"SGP4","COUNTRY_CODE":"US","REV_AT_EPOCH":"1682","PERIAPSIS":"447.553","EPHEMERIS_TYPE":"0","LAUNCH_DATE":"2022-01-06","CLASSIFICATION_TYPE":"U","APOAPSIS":"450.057","INCLINATION":"53.2176","EPOCH":"2022-04-15T22:00:00.999936","ARG_OF_PERICENTER":"35.4352","ECCENTRICITY":"0.00018340","SITE":"AFETR","PERIOD":"93.562","OBJECT_NAME":"STARLINK-3349","SEMIMAJOR_AXIS":"6826.940","RCS_SIZE":"LARGE","DECAY_DATE":null,"TIME_SYSTEM":"UTC","REF_FRAME":"TEME","MEAN_MOTION_DDOT":"0.0000000000000","MEAN_MOTION_DOT":"-0.00717462"},{"PERIAPSIS":"538.930","EPHEMERIS_TYPE":"0","LAUNCH_DATE":"2022-01-06","MEAN_ELEMENT_THEORY":"SGP4","COUNTRY_CODE":"US","REV_AT_EPOCH":"361","OBJECT_TYPE":"PAYLOAD","GP_ID":"201343182","MEAN_MOTION":"15.08804845","NORAD_CAT_ID":"50814","OBJECT_ID":"2022-001M","ELEMENT_SET_NO":"999","CENTER_NAME":"EARTH","TLE_LINE1":"1 50814U 22001M   22105.91667824 -.00033429  00000-0 -20941-2 0  9997","MEAN_ANOMALY":"163.8868","BSTAR":"-0.00209410000000","FILE":"3403567","TLE_LINE2":"2 50814  53.2157  80.6673 0001334  57.0514 163.8868 15.08804845  3619","RA_OF_ASC_NODE":"80.6673","MEAN_MOTION_DOT":"-0.00033429","MEAN_MOTION_DDOT":"0.0000000000000","DECAY_DATE":null,"RCS_SIZE":"LARGE","TIME_SYSTEM":"UTC","REF_FRAME":"TEME","SEMIMAJOR_AXIS":"6917.988","SITE":"AFETR","PERIOD":"95.440","OBJECT_NAME":"STARLINK-3324","ECCENTRICITY":"0.00013340","ARG_OF_PERICENTER":"57.0514","EPOCH":"2022-04-15T22:00:00.999936","INCLINATION":"53.2157","CLASSIFICATION_TYPE":"U","APOAPSIS":"540.776"},{"MEAN_MOTION_DOT":"0.00074327","MEAN_MOTION_DDOT":"0.0000000000000","TIME_SYSTEM":"UTC","REF_FRAME":"TEME","DECAY_DATE":null,"RCS_SIZE":"LARGE","SEMIMAJOR_AXIS":"6918.104","PERIOD":"95.442","OBJECT_NAME":"STARLINK-3234","SITE":"AFETR","ECCENTRICITY":"0.00019130","ARG_OF_PERICENTER":"51.6592","EPOCH":"2022-04-15T22:00:00.999936","INCLINATION":"53.2155","APOAPSIS":"541.293","CLASSIFICATION_TYPE":"U","LAUNCH_DATE":"2022-01-06","EPHEMERIS_TYPE":"0","PERIAPSIS":"538.646","MEAN_ELEMENT_THEORY":"SGP4","COUNTRY_CODE":"US","REV_AT_EPOCH":"361","OBJECT_ID":"2022-001N","ELEMENT_SET_NO":"999","CENTER_NAME":"EARTH","GP_ID":"201343934","OBJECT_TYPE":"PAYLOAD","MEAN_MOTION":"15.08766754","NORAD_CAT_ID":"50815","TLE_LINE1":"1 50815U 22001N   22105.91667824  .00074327  00000-0  46486-2 0  9990","MEAN_ANOMALY":"109.3095","BSTAR":"0.00464860000000","TLE_LINE2":"2 50815  53.2155  80.6676 0001913  51.6592 109.3095 15.08766754  3613","FILE":"3403567","RA_OF_ASC_NODE":"80.6676"},{"BSTAR":"0.00052564000000","MEAN_ANOMALY":"269.9428","TLE_LINE2":"2 50816  53.2176  80.6870 0001818  50.8851 269.9428 15.08871819  3618","FILE":"3403567","RA_OF_ASC_NODE":"80.6870","EPHEMERIS_TYPE":"0","LAUNCH_DATE":"2022-01-06","PERIAPSIS":"538.390","COUNTRY_CODE":"US","MEAN_ELEMENT_THEORY":"SGP4","REV_AT_EPOCH":"361","OBJECT_ID":"2022-001P","ELEMENT_SET_NO":"999","CENTER_NAME":"EARTH","OBJECT_TYPE":"PAYLOAD","GP_ID":"201344684","MEAN_MOTION":"15.08871819","NORAD_CAT_ID":"50816","TLE_LINE1":"1 50816U 22001P   22105.91667824  .00008095  00000-0  52564-3 0  9995","ARG_OF_PERICENTER":"50.8851","ECCENTRICITY":"0.00018180","EPOCH":"2022-04-15T22:00:00.999936","INCLINATION":"53.2176","APOAPSIS":"540.906","CLASSIFICATION_TYPE":"U","MEAN_MOTION_DDOT":"0.0000000000000","MEAN_MOTION_DOT":"0.00008095","TIME_SYSTEM":"UTC","REF_FRAME":"TEME","DECAY_DATE":null,"RCS_SIZE":"LARGE","SEMIMAJOR_AXIS":"6917.783","PERIOD":"95.436","OBJECT_NAME":"STARLINK-3342","SITE":"AFETR"},{"MEAN_ANOMALY":"135.4865","BSTAR":"-0.00165570000000","TLE_LINE2":"2 50817  53.2170  80.6685 0001624  45.4717 135.4865 15.08834912  3618","FILE":"3403567","RA_OF_ASC_NODE":"80.6685","LAUNCH_DATE":"2022-01-06","EPHEMERIS_TYPE":"0","PERIAPSIS":"538.637","REV_AT_EPOCH":"361","MEAN_ELEMENT_THEORY":"SGP4","COUNTRY_CODE":"US","CENTER_NAME":"EARTH","ELEMENT_SET_NO":"999","OBJECT_ID":"2022-001Q","NORAD_CAT_ID":"50817","MEAN_MOTION":"15.08834912","OBJECT_TYPE":"PAYLOAD","GP_ID":"201343432","TLE_LINE1":"1 50817U 22001Q   22105.91667824 -.00026538  00000-0 -16557-2 0  9991","ARG_OF_PERICENTER":"45.4717","ECCENTRICITY":"0.00016240","EPOCH":"2022-04-15T22:00:00.999936","INCLINATION":"53.2170","CLASSIFICATION_TYPE":"U","APOAPSIS":"540.884","MEAN_MOTION_DDOT":"0.0000000000000","MEAN_MOTION_DOT":"-0.00026538","REF_FRAME":"TEME","TIME_SYSTEM":"UTC","DECAY_DATE":null,"RCS_SIZE":"LARGE","SEMIMAJOR_AXIS":"6917.896","OBJECT_NAME":"STARLINK-3341","PERIOD":"95.438","SITE":"AFETR"},{"NORAD_CAT_ID":"50818","MEAN_MOTION":"15.08859449","OBJECT_TYPE":"PAYLOAD","GP_ID":"201343682","CENTER_NAME":"EARTH","ELEMENT_SET_NO":"999","OBJECT_ID":"2022-001R","TLE_LINE1":"1 50818U 22001R   22105.91667824  .00022030  00000-0  13972-2 0  9991","PERIAPSIS":"538.500","EPHEMERIS_TYPE":"0","LAUNCH_DATE":"2022-01-06","REV_AT_EPOCH":"361","MEAN_ELEMENT_THEORY":"SGP4","COUNTRY_CODE":"US","RA_OF_ASC_NODE":"80.6868","BSTAR":"0.00139720000000","MEAN_ANOMALY":"240.5206","FILE":"3403567","TLE_LINE2":"2 50818  53.2144  80.6868 0001715  40.3315 240.5206 15.08859449  3611","SEMIMAJOR_AXIS":"6917.821","SITE":"AFETR","OBJECT_NAME":"STARLINK-3336","PERIOD":"95.436","MEAN_MOTION_DOT":"0.00022030","MEAN_MOTION_DDOT":"0.0000000000000","DECAY_DATE":null,"RCS_SIZE":"LARGE","REF_FRAME":"TEME","TIME_SYSTEM":"UTC","INCLINATION":"53.2144","APOAPSIS":"540.872","CLASSIFICATION_TYPE":"U","ECCENTRICITY":"0.00017150","ARG_OF_PERICENTER":"40.3315","EPOCH":"2022-04-15T22:00:00.999936"},{"PERIAPSIS":"538.626","EPHEMERIS_TYPE":"0","LAUNCH_DATE":"2022-01-06","REV_AT_EPOCH":"361","MEAN_ELEMENT_THEORY":"SGP4","COUNTRY_CODE":"US","NORAD_CAT_ID":"50819","MEAN_MOTION":"15.08869374","OBJECT_TYPE":"PAYLOAD","GP_ID":"201344434","ELEMENT_SET_NO":"999","CENTER_NAME":"EARTH","OBJECT_ID":"2022-001S","TLE_LINE1":"1 50819U 22001S   22105.91667824 -.00077084  00000-0 -48736-2 0  9999","BSTAR":"-0.00487360000000","MEAN_ANOMALY":"183.0667","FILE":"3403567","TLE_LINE2":"2 50819  53.2155  80.6662 0001488  57.8564 183.0667 15.08869374  3612","RA_OF_ASC_NODE":"80.6662","MEAN_MOTION_DOT":"-0.00077084","MEAN_MOTION_DDOT":"0.0000000000000","DECAY_DATE":null,"RCS_SIZE":"LARGE","REF_FRAME":"TEME","TIME_SYSTEM":"UTC","SEMIMAJOR_AXIS":"6917.791","SITE":"AFETR","OBJECT_NAME":"STARLINK-3327","PERIOD":"95.436","ECCENTRICITY":"0.00014880","ARG_OF_PERICENTER":"57.8564","EPOCH":"2022-04-15T22:00:00.999936","INCLINATION":"53.2155","APOAPSIS":"540.685","CLASSIFICATION_TYPE":"U"},{"ARG_OF_PERICENTER":"53.0113","ECCENTRICITY":"0.00018020","EPOCH":"2022-04-15T22:00:00.999936","INCLINATION":"53.2174","CLASSIFICATION_TYPE":"U","APOAPSIS":"540.941","MEAN_MOTION_DOT":"0.00007239","MEAN_MOTION_DDOT":"0.0000000000000","TIME_SYSTEM":"UTC","REF_FRAME":"TEME","DECAY_DATE":null,"RCS_SIZE":"LARGE","SEMIMAJOR_AXIS":"6917.829","PERIOD":"95.437","OBJECT_NAME":"STARLINK-3339","SITE":"AFETR","MEAN_ANOMALY":"287.8707","BSTAR":"0.00047224000000","TLE_LINE2":"2 50820  53.2174  80.6865 0001802  53.0113 287.8707 15.08856656  3615","FILE":"3403567","RA_OF_ASC_NODE":"80.6865","EPHEMERIS_TYPE":"0","LAUNCH_DATE":"2022-01-06","PERIAPSIS":"538.448","COUNTRY_CODE":"US","MEAN_ELEMENT_THEORY":"SGP4","REV_AT_EPOCH":"361","OBJECT_ID":"2022-001T","ELEMENT_SET_NO":"999","CENTER_NAME":"EARTH","GP_ID":"201344185","OBJECT_TYPE":"PAYLOAD","NORAD_CAT_ID":"50820","MEAN_MOTION":"15.08856656","TLE_LINE1":"1 50820U 22001T   22105.91667824  .00007239  00000-0  47224-3 0  9996"},{"SEMIMAJOR_AXIS":"6917.761","SITE":"AFETR","OBJECT_NAME":"STARLINK-3346","PERIOD":"95.435","MEAN_MOTION_DOT":"-0.00023642","MEAN_MOTION_DDOT":"0.0000000000000","DECAY_DATE":null,"RCS_SIZE":"LARGE","REF_FRAME":"TEME","TIME_SYSTEM":"UTC","INCLINATION":"53.2170","CLASSIFICATION_TYPE":"U","APOAPSIS":"540.825","ARG_OF_PERICENTER":"46.2799","ECCENTRICITY":"0.00017330","EPOCH":"2022-04-15T22:00:00.999936","NORAD_CAT_ID":"50821","MEAN_MOTION":"15.08878967","GP_ID":"201342933","OBJECT_TYPE":"PAYLOAD","CENTER_NAME":"EARTH","ELEMENT_SET_NO":"999","OBJECT_ID":"2022-001U","TLE_LINE1":"1 50821U 22001U   22105.91667824 -.00023642  00000-0 -14706-2 0  9993","PERIAPSIS":"538.427","LAUNCH_DATE":"2022-01-06","EPHEMERIS_TYPE":"0","REV_AT_EPOCH":"361","COUNTRY_CODE":"US","MEAN_ELEMENT_THEORY":"SGP4","RA_OF_ASC_NODE":"80.6852","BSTAR":"-0.00147060000000","MEAN_ANOMALY":"14.5587","FILE":"3403567","TLE_LINE2":"2 50821  53.2170  80.6852 0001733  46.2799  14.5587 15.08878967  3615"}];
